OBJECT_NAME,OBJECT_ID,EPOCH,MEAN_MOTION,ECCENTRICITY,INCLINATION,RA_OF_ASC_NODE,ARG_OF_PERICENTER,MEAN_ANOMALY,EPHEMERIS_TYPE,CLASSIFICATION_TYPE,NORAD_CAT_ID,ELEMENT_SET_NO,REV_AT_EPOCH,BSTAR,MEAN_MOTION_DOT,MEAN_MOTION_DDOT
STARLINK-3629,2022-017G,2023-11-12T18:55:17.340960,15.08867713,.0001674,53.2165,185.4975,85.4680,274.6503,0,U,51774,999,9606,.41201E-3,.628E-4,0
STARLINK-3620,2022-017H,2023-11-12T01:41:58.412544,15.08839250,.0001359,53.2163,188.7193,96.4787,263.6360,0,U,51775,999,9449,.45326E-4,.434E-5,0
STARLINK-3608,2022-017J,2023-11-12T09:17:42.405504,15.08843571,.000156,53.2161,187.2992,88.8224,271.2947,0,U,51776,999,9450,.32682E-3,.4918E-4,0
STARLINK-3625,2022-017K,2023-11-12T18:56:42.361152,15.08823496,.0001434,53.2170,185.4642,106.4153,253.6997,0,U,51777,999,9606,.62053E-3,.9597E-4,0
STARLINK-3615,2022-017L,2023-11-12T07:54:13.157280,15.08840734,.0001296,53.2151,177.4352,92.5209,267.5932,0,U,51778,999,9448,.15573E-3,.2191E-4,0
STARLINK-3611,2022-017M,2023-11-12T09:19:05.459232,15.08841046,.0001473,53.2159,187.3428,96.2255,263.8905,0,U,51779,999,9450,.14209E-3,.1974E-4,0
STARLINK-3617,2022-017N,2023-11-12T08:56:30.458400,15.08839310,.0001423,53.2154,187.3528,92.0387,268.0768,0,U,51780,999,9435,.18745E-3,.2697E-4,0
STARLINK-3580,2022-017P,2023-11-12T09:01:47.797824,15.08846562,.0001267,53.2163,187.3090,95.8370,264.2767,0,U,51781,999,9435,.86897E-4,.1096E-4,0
STARLINK-3616,2022-017Q,2023-11-12T15:55:12.083520,15.08840251,.0001397,53.2154,196.0726,85.1475,274.9676,0,U,51782,999,9589,.26228E-3,.3889E-4,0
STARLINK-3628,2022-017R,2023-11-12T09:08:29.371200,15.08828516,.0001349,53.2149,187.3748,105.6984,254.4157,0,U,51783,999,9435,.47011E-3,.7199E-4,0
STARLINK-3632,2022-017S,2023-11-12T01:30:03.138912,15.08838436,.0001468,53.2164,198.7574,94.9856,265.1303,0,U,51784,999,9416,.30198E-4,.193E-5,0
STARLINK-3646,2022-017T,2023-11-11T23:20:15.851616,15.08841810,.0001411,53.2153,189.1317,95.1238,264.9916,0,U,51785,999,9429,.66721E-4,.774E-5,0
STARLINK-3638,2022-017U,2023-11-12T01:19:27.016320,15.08839364,.0001501,53.2161,198.7900,84.1338,275.9825,0,U,51786,999,9585,.59639E-4,.661E-5,0
STARLINK-3619,2022-017V,2023-11-12T09:37:34.509504,15.08842550,.0001416,53.2168,197.2371,77.8236,282.2914,0,U,51787,999,9421,.5562E-4,.597E-5,0
STARLINK-3641,2022-017W,2023-11-12T16:57:24.110784,15.08849613,.0001539,53.2174,195.8694,100.8748,259.2417,0,U,51788,999,9590,.2945E-4,.181E-5,0
STARLINK-3639,2022-017X,2023-11-12T01:24:45.037440,15.08838354,.000153,53.2162,198.7749,90.2078,269.9090,0,U,51789,999,9416,.83389E-4,.1039E-4,0
STARLINK-3631,2022-017Y,2023-11-12T16:52:06.814560,15.08830085,.000176,53.2170,195.8848,118.7449,241.3720,0,U,51790,999,9595,.95912E-4,.1238E-4,0
STARLINK-3602,2022-017Z,2023-11-12T09:11:03.829344,15.08836703,.0001597,53.2157,197.3192,93.7914,266.3261,0,U,51791,999,9585,-.21132E-3,-.3649E-4,0
STARLINK-3626,2022-017AA,2023-11-12T02:23:02.366880,15.08841056,.0001449,53.2172,198.5914,95.2793,264.8364,0,U,51792,999,9586,.79502E-4,.978E-5,0
STARLINK-3633,2022-017AB,2023-11-12T09:05:46.507200,15.08844229,.0001552,53.2160,197.3374,98.6353,261.4815,0,U,51793,999,9590,-.10826E-3,-.2011E-4,0
STARLINK-3573,2022-017AC,2023-11-11T23:01:40.438848,15.08841305,.0001489,53.2159,199.2174,87.9573,272.1589,0,U,51794,999,9579,.24247E-3,.3573E-4,0
STARLINK-3586,2022-017AD,2023-11-12T08:51:16.585344,15.08842122,.0001331,53.2159,197.4680,89.4679,270.6465,0,U,51795,999,9585,.9902E-4,.1288E-4,0
STARLINK-3630,2022-017AE,2023-11-12T09:53:28.477824,15.08842194,.0001499,53.2169,197.1858,99.2327,260.8834,0,U,51796,999,9585,.27367E-3,.407E-4,0
STARLINK-3627,2022-017AF,2023-11-12T19:47:33.341280,15.24429940,.000309,53.1501,169.4813,201.5381,158.5487,0,U,51797,999,9633,-.19869E-3,-.5273E-4,0
STARLINK-3634,2022-017AG,2023-11-11T22:40:28.590240,15.08839420,.0001451,53.2166,199.2855,92.9541,267.1617,0,U,51798,999,9583,.85355E-4,.1071E-4,0
STARLINK-3637,2022-017AH,2023-11-12T19:36:22.923936,15.08847748,.000148,53.2156,195.3715,98.1327,261.9833,0,U,51799,999,9592,.23193E-3,.3406E-4,0
STARLINK-3600,2022-017AJ,2023-11-12T22:00:00.999936,15.84963149,.0002896,53.2030,140.7436,285.8141,324.8567,0,U,51800,999,9673,.99287E-3,.243562E-2,0
STARLINK-3592,2022-017AK,2023-11-12T19:31:04.850976,15.08849374,.0001494,53.2169,195.3859,92.4836,267.6328,0,U,51801,999,9592,.23566E-3,.3465E-4,0
STARLINK-3557,2022-017AL,2023-11-12T08:49:52.980384,15.08837321,.0001404,53.2169,197.3752,89.5814,270.5339,0,U,51802,999,9585,.36959E-4,.3E-5,0
STARLINK-3544,2022-017AM,2023-11-12T09:42:52.549632,15.08842727,.0001603,53.2179,197.2213,86.1676,273.9500,0,U,51803,999,9585,.61302E-4,.688E-5,0
