STARLINK-3629           
1 51774U 22017G   23316.78839515  .00006280  00000+0  41201-3 0  9993
2 51774  53.2165 185.4975 0001674  85.4680 274.6503 15.08867713 96060
STARLINK-3620           
1 51775U 22017H   23316.07081496  .00000434  00000+0  45326-4 0  9991
2 51775  53.2163 188.7193 0001359  96.4787 263.6360 15.08839250 94496
STARLINK-3608           
1 51776U 22017J   23316.38729636  .00004918  00000+0  32682-3 0  9992
2 51776  53.2161 187.2992 0001560  88.8224 271.2947 15.08843571 94500
STARLINK-3625           
1 51777U 22017K   23316.78937918  .00009597  00000+0  62053-3 0  9994
2 51777  53.2170 185.4642 0001434 106.4153 253.6997 15.08823496 96067
STARLINK-3615           
1 51778U 22017L   23316.32931895  .00002191  00000+0  15573-3 0  9991
2 51778  53.2151 177.4352 0001296  92.5209 267.5932 15.08840734 94480
STARLINK-3611           
1 51779U 22017M   23316.38825763  .00001974  00000+0  14209-3 0  9997
2 51779  53.2159 187.3428 0001473  96.2255 263.8905 15.08841046 94501
STARLINK-3617           
1 51780U 22017N   23316.37257475  .00002697  00000+0  18745-3 0  9999
2 51780  53.2154 187.3528 0001423  92.0387 268.0768 15.08839310 94352
STARLINK-3580           
1 51781U 22017P   23316.37624766  .00001096  00000+0  86897-4 0  9997
2 51781  53.2163 187.3090 0001267  95.8370 264.2767 15.08846562 94350
STARLINK-3616           
1 51782U 22017Q   23316.66333430  .00003889  00000+0  26228-3 0  9998
2 51782  53.2154 196.0726 0001397  85.1475 274.9676 15.08840251 95892
STARLINK-3628           
1 51783U 22017R   23316.38089550  .00007199  00000+0  47011-3 0  9990
2 51783  53.2149 187.3748 0001349 105.6984 254.4157 15.08828516 94351
STARLINK-3632           
1 51784U 22017S   23316.06253633  .00000193  00000+0  30198-4 0  9997
2 51784  53.2164 198.7574 0001468  94.9856 265.1303 15.08838436 94165
STARLINK-3646           
1 51785U 22017T   23315.97240569  .00000774  00000+0  66721-4 0  9997
2 51785  53.2153 189.1317 0001411  95.1238 264.9916 15.08841810 94299
STARLINK-3638           
1 51786U 22017U   23316.05517380  .00000661  00000+0  59639-4 0  9991
2 51786  53.2161 198.7900 0001501  84.1338 275.9825 15.08839364 95857
STARLINK-3619           
1 51787U 22017V   23316.40109386  .00000597  00000+0  55620-4 0  9998
2 51787  53.2168 197.2371 0001416  77.8236 282.2914 15.08842550 94212
STARLINK-3641           
1 51788U 22017W   23316.70652906  .00000181  00000+0  29450-4 0  9994
2 51788  53.2174 195.8694 0001539 100.8748 259.2417 15.08849613 95909
STARLINK-3639           
1 51789U 22017X   23316.05885460  .00001039  00000+0  83389-4 0  9990
2 51789  53.2162 198.7749 0001530  90.2078 269.9090 15.08838354 94161
STARLINK-3631           
1 51790U 22017Y   23316.70285665  .00001238  00000+0  95912-4 0  9991
2 51790  53.2170 195.8848 0001760 118.7449 241.3720 15.08830085 95958
STARLINK-3602           
1 51791U 22017Z   23316.38268321 -.00003649  00000+0 -21132-3 0  9998
2 51791  53.2157 197.3192 0001597  93.7914 266.3261 15.08836703 95859
STARLINK-3626           
1 51792U 22017AA  23316.09933295  .00000978  00000+0  79502-4 0  9991
2 51792  53.2172 198.5914 0001449  95.2793 264.8364 15.08841056 95865
STARLINK-3633           
1 51793U 22017AB  23316.37901050 -.00002011  00000+0 -10826-3 0  9992
2 51793  53.2160 197.3374 0001552  98.6353 261.4815 15.08844229 95908
STARLINK-3573           
1 51794U 22017AC  23315.95949582  .00003573  00000+0  24247-3 0  9992
2 51794  53.2159 199.2174 0001489  87.9573 272.1589 15.08841305 95796
STARLINK-3586           
1 51795U 22017AD  23316.36894196  .00001288  00000+0  99020-4 0  9992
2 51795  53.2159 197.4680 0001331  89.4679 270.6465 15.08842122 95850
STARLINK-3630           
1 51796U 22017AE  23316.41213516  .00004070  00000+0  27367-3 0  9996
2 51796  53.2169 197.1858 0001499  99.2327 260.8834 15.08842194 95850
STARLINK-3627           
1 51797U 22017AF  23316.82469145 -.00005273  00000+0 -19869-3 0  9999
2 51797  53.1501 169.4813 0003090 201.5381 158.5487 15.24429940 96339
STARLINK-3634           
1 51798U 22017AG  23315.94477535  .00001071  00000+0  85355-4 0  9998
2 51798  53.2166 199.2855 0001451  92.9541 267.1617 15.08839420 95830
STARLINK-3637           
1 51799U 22017AH  23316.81693199  .00003406  00000+0  23193-3 0  9997
2 51799  53.2156 195.3715 0001480  98.1327 261.9833 15.08847748 95928
STARLINK-3600           
1 51800U 22017AJ  23316.91667824  .00243562  00000+0  99287-3 0  9993
2 51800  53.2030 140.7436 0002896 285.8141 324.8567 15.84963149 96738
STARLINK-3592           
1 51801U 22017AK  23316.81325059  .00003465  00000+0  23566-3 0  9997
2 51801  53.2169 195.3859 0001494  92.4836 267.6328 15.08849374 95921
STARLINK-3557           
1 51802U 22017AL  23316.36797431  .00000300  00000+0  36959-4 0  9991
2 51802  53.2169 197.3752 0001404  89.5814 270.5339 15.08837321 95856
STARLINK-3544           
1 51803U 22017AM  23316.40477488  .00000688  00000+0  61302-4 0  9993
2 51803  53.2179 197.2213 0001603  86.1676 273.9500 15.08842727 95852
